start=new Date('2022-10-15T00:00:00.000Z').valueOf();
sats=[{"MEAN_ANOMALY":"299.2011","OBJECT_ID":"2020-025S","CLASSIFICATION_TYPE":"U","DECAY_DATE":null,"PERIOD":"95.592","SEMIMAJOR_AXIS":"6925.323","ELEMENT_SET_NO":"999","MEAN_MOTION_DDOT":"0.0000000000000","COUNTRY_CODE":"US","EPHEMERIS_TYPE":"0","EPOCH":"2022-10-14T17:01:21.045504","OBJECT_NAME":"STARLINK-1377","REV_AT_EPOCH":"13790","TLE_LINE2":"2 45547  53.0542 282.0981 0001627  60.9140 299.2011 15.06408237137902","NORAD_CAT_ID":"45547","MEAN_MOTION":"15.06408237","INCLINATION":"53.0542","ARG_OF_PERICENTER":"60.9140","FILE":"3612869","MEAN_MOTION_DOT":"0.00003634","PERIAPSIS":"546.062","REF_FRAME":"TEME","MEAN_ELEMENT_THEORY":"SGP4","TLE_LINE1":"1 45547U 20025S   22287.70927136  .00003634  00000-0  26268-3 0  9993","LAUNCH_DATE":"2020-04-22","BSTAR":"0.00026268000000","RCS_SIZE":"LARGE","TIME_SYSTEM":"UTC","CENTER_NAME":"EARTH","SITE":"AFETR","OBJECT_TYPE":"PAYLOAD","APOAPSIS":"548.315","GP_ID":"215141590","RA_OF_ASC_NODE":"282.0981","ECCENTRICITY":"0.00016270"},{"NORAD_CAT_ID":"45548","MEAN_MOTION":"15.06405703","ARG_OF_PERICENTER":"54.7313","INCLINATION":"53.0542","FILE":"3611991","MEAN_MOTION_DOT":"0.00001295","COUNTRY_CODE":"US","EPOCH":"2022-10-14T11:16:20.755488","EPHEMERIS_TYPE":"0","REV_AT_EPOCH":"13785","OBJECT_NAME":"STARLINK-1378","TLE_LINE2":"2 45548  53.0542 283.1652 0001853  54.7313 305.3849 15.06405703137851","DECAY_DATE":null,"PERIOD":"95.592","SEMIMAJOR_AXIS":"6925.331","MEAN_MOTION_DDOT":"0.0000000000000","ELEMENT_SET_NO":"999","OBJECT_ID":"2020-025T","MEAN_ANOMALY":"305.3849","CLASSIFICATION_TYPE":"U","SITE":"AFETR","OBJECT_TYPE":"PAYLOAD","APOAPSIS":"548.479","GP_ID":"215098896","RA_OF_ASC_NODE":"283.1652","ECCENTRICITY":"0.00018530","BSTAR":"0.00010578000000","RCS_SIZE":"LARGE","TIME_SYSTEM":"UTC","CENTER_NAME":"EARTH","MEAN_ELEMENT_THEORY":"SGP4","TLE_LINE1":"1 45548U 20025T   22287.46968467  .00001295  00000-0  10578-3 0  9997","LAUNCH_DATE":"2020-04-22","PERIAPSIS":"545.913","REF_FRAME":"TEME"},{"DECAY_DATE":null,"PERIOD":"95.592","ELEMENT_SET_NO":"999","MEAN_MOTION_DDOT":"0.0000000000000","SEMIMAJOR_AXIS":"6925.350","MEAN_ANOMALY":"306.5189","OBJECT_ID":"2020-025V","CLASSIFICATION_TYPE":"U","MEAN_MOTION":"15.06399493","NORAD_CAT_ID":"45550","MEAN_MOTION_DOT":"0.00001817","INCLINATION":"53.0541","ARG_OF_PERICENTER":"53.5944","FILE":"3612869","COUNTRY_CODE":"US","EPHEMERIS_TYPE":"0","EPOCH":"2022-10-14T16:28:08.333184","TLE_LINE2":"2 45550  53.0541 282.1741 0001556  53.5944 306.5189 15.06399493137889","OBJECT_NAME":"STARLINK-1390","REV_AT_EPOCH":"13788","TLE_LINE1":"1 45550U 20025V   22287.68620756  .00001817  00000-0  14088-3 0  9990","LAUNCH_DATE":"2020-04-22","MEAN_ELEMENT_THEORY":"SGP4","REF_FRAME":"TEME","PERIAPSIS":"546.138","APOAPSIS":"548.293","RA_OF_ASC_NODE":"282.1741","GP_ID":"215140089","SITE":"AFETR","OBJECT_TYPE":"PAYLOAD","ECCENTRICITY":"0.00015560","BSTAR":"0.00014088000000","CENTER_NAME":"EARTH","RCS_SIZE":"LARGE","TIME_SYSTEM":"UTC"},{"REF_FRAME":"TEME","PERIAPSIS":"546.239","LAUNCH_DATE":"2020-04-22","TLE_LINE1":"1 45551U 20025W   22287.42360943  .00000104  00000-0  25846-4 0  9995","MEAN_ELEMENT_THEORY":"SGP4","CENTER_NAME":"EARTH","TIME_SYSTEM":"UTC","RCS_SIZE":"LARGE","BSTAR":"0.00002584600000","ECCENTRICITY":"0.00014050","RA_OF_ASC_NODE":"263.3750","GP_ID":"215097897","APOAPSIS":"548.185","OBJECT_TYPE":"PAYLOAD","SITE":"AFETR","CLASSIFICATION_TYPE":"U","OBJECT_ID":"2020-025W","MEAN_ANOMALY":"294.9922","MEAN_MOTION_DDOT":"0.0000000000000","ELEMENT_SET_NO":"999","SEMIMAJOR_AXIS":"6925.347","PERIOD":"95.592","DECAY_DATE":null,"TLE_LINE2":"2 45551  53.0570 263.3750 0001405  65.1213 294.9922 15.06400425138136","OBJECT_NAME":"STARLINK-1294","REV_AT_EPOCH":"13813","EPOCH":"2022-10-14T10:09:59.854752","EPHEMERIS_TYPE":"0","COUNTRY_CODE":"US","MEAN_MOTION_DOT":"0.00000104","FILE":"3611991","INCLINATION":"53.0570","ARG_OF_PERICENTER":"65.1213","MEAN_MOTION":"15.06400425","NORAD_CAT_ID":"45551"},{"NORAD_CAT_ID":"45553","MEAN_MOTION":"15.06395130","INCLINATION":"53.0563","ARG_OF_PERICENTER":"77.0390","FILE":"3612869","MEAN_MOTION_DOT":"0.00001029","COUNTRY_CODE":"US","EPHEMERIS_TYPE":"0","EPOCH":"2022-10-14T21:34:42.056832","OBJECT_NAME":"STARLINK-1323","REV_AT_EPOCH":"13691","TLE_LINE2":"2 45553  53.0563 261.2272 0001301  77.0390 283.0745 15.06395130136911","DECAY_DATE":null,"PERIOD":"95.592","SEMIMAJOR_AXIS":"6925.363","MEAN_MOTION_DDOT":"0.0000000000000","ELEMENT_SET_NO":"999","OBJECT_ID":"2020-025Y","MEAN_ANOMALY":"283.0745","CLASSIFICATION_TYPE":"U","SITE":"AFETR","OBJECT_TYPE":"PAYLOAD","APOAPSIS":"548.129","RA_OF_ASC_NODE":"261.2272","GP_ID":"215141091","ECCENTRICITY":"0.00013010","BSTAR":"0.00008796000000","RCS_SIZE":"LARGE","TIME_SYSTEM":"UTC","CENTER_NAME":"EARTH","MEAN_ELEMENT_THEORY":"SGP4","TLE_LINE1":"1 45553U 20025Y   22287.89909788  .00001029  00000-0  87960-4 0  9996","LAUNCH_DATE":"2020-04-22","PERIAPSIS":"546.327","REF_FRAME":"TEME"},{"SEMIMAJOR_AXIS":"6925.339","ELEMENT_SET_NO":"999","MEAN_MOTION_DDOT":"0.0000000000000","PERIOD":"95.592","DECAY_DATE":null,"CLASSIFICATION_TYPE":"U","OBJECT_ID":"2020-025Z","MEAN_ANOMALY":"311.3921","FILE":"3612869","INCLINATION":"53.0559","ARG_OF_PERICENTER":"48.7244","MEAN_MOTION_DOT":"0.00001366","NORAD_CAT_ID":"45554","MEAN_MOTION":"15.06403174","REV_AT_EPOCH":"13816","OBJECT_NAME":"STARLINK-1325","TLE_LINE2":"2 45554  53.0559 262.4543 0002043  48.7244 311.3921 15.06403174138166","EPOCH":"2022-10-14T15:00:34.245504","EPHEMERIS_TYPE":"0","COUNTRY_CODE":"US","MEAN_ELEMENT_THEORY":"SGP4","LAUNCH_DATE":"2020-04-22","TLE_LINE1":"1 45554U 20025Z   22287.62539636  .00001366  00000-0  11060-3 0  9990","PERIAPSIS":"545.789","REF_FRAME":"TEME","ECCENTRICITY":"0.00020430","OBJECT_TYPE":"PAYLOAD","SITE":"AFETR","GP_ID":"215139839","RA_OF_ASC_NODE":"262.4543","APOAPSIS":"548.619","TIME_SYSTEM":"UTC","RCS_SIZE":"LARGE","CENTER_NAME":"EARTH","BSTAR":"0.00011060000000"},{"CENTER_NAME":"EARTH","TIME_SYSTEM":"UTC","RCS_SIZE":"LARGE","BSTAR":"0.00012973000000","ECCENTRICITY":"0.00015910","RA_OF_ASC_NODE":"261.1390","GP_ID":"215140590","APOAPSIS":"548.302","OBJECT_TYPE":"PAYLOAD","SITE":"AFETR","REF_FRAME":"TEME","PERIAPSIS":"546.098","LAUNCH_DATE":"2020-04-22","TLE_LINE1":"1 45555U 20025AA  22287.92121107  .00001652  00000-0  12973-3 0  9996","MEAN_ELEMENT_THEORY":"SGP4","TLE_LINE2":"2 45555  53.0553 261.1390 0001591  63.2564 296.8588 15.06404459138209","OBJECT_NAME":"STARLINK-1327","REV_AT_EPOCH":"13820","EPHEMERIS_TYPE":"0","EPOCH":"2022-10-14T22:06:32.636448","COUNTRY_CODE":"US","MEAN_MOTION_DOT":"0.00001652","FILE":"3612869","ARG_OF_PERICENTER":"63.2564","INCLINATION":"53.0553","MEAN_MOTION":"15.06404459","NORAD_CAT_ID":"45555","CLASSIFICATION_TYPE":"U","MEAN_ANOMALY":"296.8588","OBJECT_ID":"2020-025AA","ELEMENT_SET_NO":"999","MEAN_MOTION_DDOT":"0.0000000000000","SEMIMAJOR_AXIS":"6925.335","PERIOD":"95.592","DECAY_DATE":null},{"MEAN_ELEMENT_THEORY":"SGP4","LAUNCH_DATE":"2020-04-22","TLE_LINE1":"1 45556U 20025AB  22287.63002622  .00001482  00000-0  11835-3 0  9992","PERIAPSIS":"546.119","REF_FRAME":"TEME","OBJECT_TYPE":"PAYLOAD","SITE":"AFETR","RA_OF_ASC_NODE":"262.4428","GP_ID":"215140841","APOAPSIS":"548.307","ECCENTRICITY":"0.00015800","BSTAR":"0.00011835000000","TIME_SYSTEM":"UTC","RCS_SIZE":"LARGE","CENTER_NAME":"EARTH","PERIOD":"95.592","DECAY_DATE":null,"SEMIMAJOR_AXIS":"6925.348","ELEMENT_SET_NO":"999","MEAN_MOTION_DDOT":"0.0000000000000","OBJECT_ID":"2020-025AB","MEAN_ANOMALY":"303.1158","CLASSIFICATION_TYPE":"U","NORAD_CAT_ID":"45556","MEAN_MOTION":"15.06400242","FILE":"3612869","INCLINATION":"53.0530","ARG_OF_PERICENTER":"56.9982","MEAN_MOTION_DOT":"0.00001482","EPOCH":"2022-10-14T15:07:14.265408","EPHEMERIS_TYPE":"0","COUNTRY_CODE":"US","OBJECT_NAME":"STARLINK-1334","REV_AT_EPOCH":"13816","TLE_LINE2":"2 45556  53.0530 262.4428 0001580  56.9982 303.1158 15.06400242138168"},{"OBJECT_ID":"2020-025AC","MEAN_ANOMALY":"297.0517","CLASSIFICATION_TYPE":"U","DECAY_DATE":null,"PERIOD":"95.592","SEMIMAJOR_AXIS":"6925.337","MEAN_MOTION_DDOT":"0.0000000000000","ELEMENT_SET_NO":"999","COUNTRY_CODE":"US","EPHEMERIS_TYPE":"0","EPOCH":"2022-10-14T21:40:00.541920","REV_AT_EPOCH":"13820","OBJECT_NAME":"STARLINK-1336","TLE_LINE2":"2 45557  53.0526 261.2274 0001574  63.0633 297.0517 15.06403933138200","NORAD_CAT_ID":"45557","MEAN_MOTION":"15.06403933","INCLINATION":"53.0526","ARG_OF_PERICENTER":"63.0633","FILE":"3612869","MEAN_MOTION_DOT":"0.00002369","PERIAPSIS":"546.111","REF_FRAME":"TEME","MEAN_ELEMENT_THEORY":"SGP4","TLE_LINE1":"1 45557U 20025AC  22287.90278405  .00002369  00000-0  17785-3 0  9992","LAUNCH_DATE":"2020-04-22","BSTAR":"0.00017785000000","RCS_SIZE":"LARGE","TIME_SYSTEM":"UTC","CENTER_NAME":"EARTH","SITE":"AFETR","OBJECT_TYPE":"PAYLOAD","APOAPSIS":"548.292","GP_ID":"215141591","RA_OF_ASC_NODE":"261.2274","ECCENTRICITY":"0.00015740"},{"MEAN_ELEMENT_THEORY":"SGP4","TLE_LINE1":"1 45558U 20025AD  22287.67058081  .00000713  00000-0  66764-4 0  9996","LAUNCH_DATE":"2020-04-22","PERIAPSIS":"545.946","REF_FRAME":"TEME","ECCENTRICITY":"0.00018660","SITE":"AFETR","OBJECT_TYPE":"PAYLOAD","APOAPSIS":"548.531","GP_ID":"215140340","RA_OF_ASC_NODE":"262.2715","RCS_SIZE":"LARGE","TIME_SYSTEM":"UTC","CENTER_NAME":"EARTH","BSTAR":"0.00006676400000","SEMIMAJOR_AXIS":"6925.374","MEAN_MOTION_DDOT":"0.0000000000000","ELEMENT_SET_NO":"999","DECAY_DATE":null,"PERIOD":"95.593","CLASSIFICATION_TYPE":"U","MEAN_ANOMALY":"305.2740","OBJECT_ID":"2020-025AD","INCLINATION":"53.0539","ARG_OF_PERICENTER":"54.8423","FILE":"3612869","MEAN_MOTION_DOT":"0.00000713","NORAD_CAT_ID":"45558","MEAN_MOTION":"15.06391783","OBJECT_NAME":"STARLINK-1342","REV_AT_EPOCH":"13816","TLE_LINE2":"2 45558  53.0539 262.2715 0001866  54.8423 305.2740 15.06391783138169","COUNTRY_CODE":"US","EPOCH":"2022-10-14T16:05:38.181984","EPHEMERIS_TYPE":"0"}];
